STARLINK-11496 [DTC]    
1 62267U 24237A   24359.96214083 -.00006950  00000+0 -37148-4 0  9995
2 62267  43.0001 189.9218 0001713 284.6947  75.3733 15.77829898  3851
STARLINK-11501 [DTC]    
1 62268U 24237B   24359.95725192  .00102729  00000+0  58558-3 0  9999
2 62268  42.9995 189.8816 0001979 269.1937  90.8706 15.77875109  3809
STARLINK-11491 [DTC]    
1 62269U 24237C   24359.91667824 -.00016250  00000+0 -90651-4 0  9999
2 62269  43.0002 190.0618 0001775 278.6249 238.4462 15.77864340  3871
STARLINK-11479 [DTC]    
1 62270U 24237D   24359.91667824 -.00001256  00000+0 -43508-5 0  9991
2 62270  43.0000 189.9921 0001980 283.9760 260.8405 15.77857352  3871
STARLINK-11489 [DTC]    
1 62271U 24237E   24360.16667824 -.00086337  00000+0 -49740-3 0  9996
2 62271  42.9997 188.3974 0002189 264.6998 289.6794 15.77893066  3891
STARLINK-11494 [DTC]    
1 62272U 24237F   24359.91667824 -.00013542  00000+0 -75055-4 0  9995
2 62272  42.9999 189.8533 0001630 276.9928 323.3262 15.77860917  3828
STARLINK-11333 [DTC]    
1 62273U 24237G   24359.91667824 -.01071601  00000+0 -62512-2 0  9999
2 62273  43.0001 189.7917 0001672 275.2425 349.8220 15.79838728  3879
STARLINK-11504 [DTC]    
1 62274U 24237H   24359.91667824 -.01018497  00000+0 -53680-2 0  9990
2 62274  43.0001 189.7529 0001614 276.3392   4.1673 15.82285787  3823
STARLINK-11495 [DTC]    
1 62275U 24237J   24359.99250847 -.00030259  00000+0 -12655-3 0  9999
2 62275  42.9995 189.2681 0002128 253.4241 106.6398 15.84379854  3810
STARLINK-11498 [DTC]    
1 62276U 24237K   24359.99194413  .00060420  00000+0  25623-3 0  9996
2 62276  42.9996 189.2632 0002159 269.1730  90.8895 15.84451530  3862
STARLINK-11484 [DTC]    
1 62277U 24237L   24359.99135142  .00029639  00000+0  12734-3 0  9997
2 62277  42.9992 189.2573 0002379 263.9707  96.0894 15.84449602  3867
STARLINK-11487 [DTC]    
1 62278U 24237M   24359.99086590  .00041758  00000+0  17861-3 0  9992
2 62278  42.9994 189.2533 0001721 285.3120  74.7562 15.84402826  3865
STARLINK-11499 [DTC]    
1 62279U 24237N   24359.99030626  .00045599  00000+0  19512-3 0  9994
2 62279  42.9985 189.2497 0002139 263.2257  96.8372 15.84360969  3826
STARLINK-33548          
1 62280U 24237P   24359.91667824 -.01274255  00000+0 -10814-1 0  9994
2 62280  42.9998 190.2329 0001724 281.8130 166.2060 15.71417308  3836
STARLINK-33544          
1 62281U 24237Q   24359.91667824 -.01274468  00000+0 -10816-1 0  9993
2 62281  42.9994 190.2276 0001653 276.2594 173.6762 15.71418046  3838
STARLINK-33560          
1 62282U 24237R   24359.91667824 -.01274823  00000+0 -10819-1 0  9992
2 62282  42.9998 190.2232 0001699 276.6098 175.2423 15.71418386  3725
STARLINK-33547          
1 62283U 24237S   24359.91667824 -.01273443  00000+0 -10807-1 0  9997
2 62283  42.9995 190.2178 0001566 274.2244 179.5457 15.71417405  3839
STARLINK-33563          
1 62284U 24237T   24359.91667824 -.01270729  00000+0 -10782-1 0  9994
2 62284  42.9995 190.2129 0001537 276.7692 178.9183 15.71416226  3848
STARLINK-33550          
1 62285U 24237U   24359.91667824 -.01272629  00000+0 -10799-1 0  9994
2 62285  42.9998 190.2039 0001758 281.6063 177.9141 15.71416133  3833
STARLINK-33564          
1 62286U 24237V   24359.91667824 -.01276163  00000+0 -10832-1 0  9990
2 62286  42.9997 190.1986 0001611 277.5935 183.8440 15.71418558  3834
STARLINK-33546          
1 62287U 24237W   24359.91667824 -.01275175  00000+0 -10822-1 0  9992
2 62287  42.9996 190.1939 0001723 277.6303 185.7225 15.71418843  3723
STARLINK-33565          
1 62288U 24237X   24359.91667824 -.01276349  00000+0 -10833-1 0  9999
2 62288  42.9998 190.2088 0001638 276.4589 181.1429 15.71419940  3837
STARLINK-33549          
1 62289U 24237Y   24359.26285748 -.00149237  00000+0 -10165-2 0  9992
2 62289  42.9996 194.1366 0002137 272.8158  87.2466 15.74330711  3710
GJZ 01                  
1 62290U 24238A   24359.91322854  .00000046  00000+0  32877-3 0  9994
2 62290  59.9107 106.1068 0012189 294.4163  65.5550 13.28533449  1687
GJZ 02                  
1 62291U 24238B   24359.88855903  .00001040  00000+0  47956-3 0  9996
2 62291  59.9146  99.8183 0016589 321.2413  38.7428 14.27161978  1783
GJZ 03                  
1 62292U 24238C   24359.93092025  .00000206  00000+0  34199-3 0  9999
2 62292  59.9130 103.1537 0008917 281.0699  78.9305 13.74623109  1728
GJZ 04                  
1 62293U 24238D   24359.92455293  .00000207  00000+0  33921-3 0  9992
2 62293  59.9131 103.1281 0011163 295.7004  64.2850 13.75313341  1745
GJZ 05                  
1 62294U 24238E   24359.92659049  .00000189  00000+0  32087-3 0  9999
2 62294  59.9119 103.1359 0009853 295.5476  64.4513 13.75094309  1740
YODAKA                  
1 62295U 98067XB  24359.69941444  .00164965  00000+0  23429-2 0  9990
2 62295  51.6363  91.1959 0013277  17.2166 342.9273 15.55235194  2403
1998-067XC              
1 62296U 98067XC  24359.31780597  .00107743  00000+0  16279-2 0  9996
2 62296  51.6372  93.1490 0012684   9.1023 351.0195 15.53788320  2326
1998-067XD              
1 62297U 98067XD  24359.70110787  .00142754  00000+0  20799-2 0  9991
2 62297  51.6364  91.2080 0013289  11.2222 348.9063 15.54626271  2381
YOMOGI                  
1 62298U 98067XE  24359.83246489  .00104961  00000+0  15800-2 0  9990
2 62298  51.6366  90.5851 0012702  11.4920 348.6358 15.53902762  2406
ONGLAISAT               
1 62299U 98067XF  24359.83188937  .00151752  00000+0  22165-2 0  9996
2 62299  51.6366  90.5821 0011755  13.1061 347.0233 15.54543976  2387
STARLINK-32648          
1 62301U 24239A   24359.91667824 -.01212677  00000+0 -73849-2 0  9998
2 62301  53.1683  86.1710 0001264  57.2567 134.6368 15.79461463  1859
STARLINK-32594          
1 62302U 24239B   24360.16667824 -.00466669  80394-4 -13183-2 0  9993
2 62302  53.1677  84.4537 0001033  64.8847 334.4808 15.92637396  1966
STARLINK-32621          
1 62303U 24239C   24359.91667824 -.01229847  00000+0 -75304-2 0  9995
2 62303  53.1679  86.1559 0001191  67.5821 131.3081 15.79383048  1693
STARLINK-32597          
1 62304U 24239D   24359.91667824 -.01215159  00000+0 -74155-2 0  9990
2 62304  53.1679  86.1613 0001066  59.5016 136.8498 15.79423774  1854
STARLINK-32649          
1 62305U 24239E   24360.16667824 -.01206535  00000+0 -76124-2 0  9996
2 62305  53.1679  84.9008 0001028  76.0507 107.0522 15.78676367  1952
STARLINK-32633          
1 62306U 24239F   24360.16667824 -.01227440  00000+0 -78043-2 0  9997
2 62306  53.1677  84.8903 0001176  77.4808 110.5986 15.78554070  1956
STARLINK-32646          
1 62307U 24239G   24360.16667824 -.01215482  00000+0 -76962-2 0  9999
2 62307  53.1678  84.8956 0001131  79.9197 105.6529 15.78617965  1956
STARLINK-32706          
1 62308U 24239H   24360.16667824 -.01239603  00000+0 -79151-2 0  9994
2 62308  53.1676  84.8853 0001227  77.1082 113.4734 15.78488891  1959
STARLINK-32678          
1 62309U 24239J   24360.16667824 -.01260951  00000+0 -81099-2 0  9999
2 62309  53.1677  84.8750 0001221  77.1749 118.2068 15.78380085  1950
STARLINK-32696          
1 62310U 24239K   24360.16667824 -.01273986  00000+0 -82307-2 0  9996
2 62310  53.1676  84.8699 0001085  82.1507 115.7106 15.78313440  1955
STARLINK-32700          
1 62311U 24239L   24360.16667824 -.01250422  00000+0 -80120-2 0  9998
2 62311  53.1675  84.8802 0001113  80.4376 112.5181 15.78439107  1955
STARLINK-32698          
1 62312U 24239M   24360.16667824 -.01282964  00000+0 -83097-2 0  9991
2 62312  53.1673  84.8650 0001072  82.0782 118.0151 15.78279231  1956
STARLINK-32634          
1 62313U 24239N   24360.16667824 -.01321173  00000+0 -84332-2 0  9991
2 62313  53.1672  84.8599 0001014  85.7172 116.7278 15.78228563  1954
STARLINK-32651          
1 62314U 24239P   24360.16667824 -.01348810  00000+0 -86586-2 0  9992
2 62314  53.1669  84.8547 0001120  81.9058 123.0506 15.78156387  1952
STARLINK-32627          
1 62315U 24239Q   24360.16667824 -.01374170  00000+0 -88605-2 0  9995
2 62315  53.1670  84.8498 0001106  80.9700 126.3122 15.78108732  1958
STARLINK-32596          
1 62316U 24239R   24360.16667824 -.01398386  00000+0 -90736-2 0  9999
2 62316  53.1670  84.8443 0001104  80.6216 129.2072 15.78017584  1956
STARLINK-32519          
1 62317U 24239S   24360.16667824 -.01416107  00000+0 -92504-2 0  9997
2 62317  53.1669  84.8389 0001017  82.5314 129.9033 15.77905591  1954
STARLINK-32576          
1 62318U 24239T   24360.16667824 -.01424709  00000+0 -93279-2 0  9995
2 62318  53.1667  84.8345 0001036  78.1103 136.4718 15.77871978  1957
STARLINK-32527          
1 62319U 24239U   24360.16667824 -.01451950  00000+0 -96030-2 0  9992
2 62319  53.1666  84.8244 0001076  77.3375 142.0732 15.77702186  1954
STARLINK-32481          
1 62320U 24239V   24360.16667824 -.01441059  00000+0 -94951-2 0  9993
2 62320  53.1671  84.8293 0001005  84.7039 132.4233 15.77764509  1953
STARLINK-32645          
1 62321U 24239W   24360.16667824 -.01479403  00000+0 -98772-2 0  9993
2 62321  53.1667  84.8147 0001146  80.9670 143.1420 15.77548209  1956
STARLINK-32654          
1 62322U 24239X   24360.16667824 -.01463194  00000+0 -97192-2 0  9999
2 62322  53.1667  84.8199 0001130  83.2991 138.4450 15.77628774  1955
SATNET LEO-01 A         
1 62323U 24240A   24359.89432924  .00000150  00000+0  24737-3 0  9993
2 62323  86.5014 165.9118 0011578 282.0801  77.9045 13.40236645  1137
SATNET LEO-01 B         
1 62324U 24240B   24360.19136968  .00000180  00000+0  30145-3 0  9991
2 62324  86.5043 165.8089 0009589 278.7167  81.2890 13.40481022  1173
SATNET LEO-01 C         
1 62325U 24240C   24360.19165945  .00000079  00000+0  11735-3 0  9990
2 62325  86.4997 165.8070 0011270 273.2690  86.7164 13.40435913  1174
SATNET LEO-01 D         
1 62326U 24240D   24359.89272401  .00000089  00000+0  13545-3 0  9994
2 62326  86.5005 165.9098 0010681 276.2291  83.7635 13.40488242  1131
SATNET LEO-01 E         
1 62327U 24240E   24359.89100800  .00000246  00000+0  41976-3 0  9992
2 62327  86.5058 165.9142 0010336 269.8371  90.1588 13.40764852  1137
